STARLINK-36746          
1 67733U 26026N   26055.25002315 -.01698629  00000+0 -92930-2 0  9995
2 67733  97.2723 109.2277 0001100  83.1726 253.5648 15.82861043  3155
STARLINK-36749          
1 67734U 26026P   26055.25002315 -.01755567  00000+0 -95357-2 0  9997
2 67734  97.2717 109.2291 0001355  73.4458 269.9088 15.83121989  3159
STARLINK-36691          
1 67735U 26026Q   26055.25002315 -.01752286  00000+0 -92266-2 0  9999
2 67735  97.2708 109.2366 0001109  73.2591 287.9464 15.83771612  3282
STARLINK-36317          
1 67736U 26026R   26055.25002315 -.01757735  00000+0 -93995-2 0  9994
2 67736  97.2711 109.2326 0001193  63.1541 289.4026 15.83456986  3150
STARLINK-36330          
1 67737U 26026S   26055.25002315 -.01763728  00000+0 -92039-2 0  9992
2 67737  97.2704 109.2385 0001463  71.2179 295.6487 15.83976864  3157
STARLINK-36327          
1 67738U 26026T   26055.25002315 -.01759278  00000+0 -90642-2 0  9996
2 67738  97.2701 109.2419 0001294  74.9866 299.0623 15.84236669  3151
STARLINK-36329          
1 67739U 26026U   26055.25002315 -.01737840  00000+0 -83024-2 0  9994
2 67739  97.2672 109.2582 0001335  66.8662 349.2817 15.85756130  3154
STARLINK-36737          
1 67740U 26026V   26055.25002315 -.01753607  00000+0 -89083-2 0  9996
2 67740  97.2693 109.2443 0001405  64.7045 317.1472 15.84517907  3152
STARLINK-36740          
1 67741U 26026W   26055.25002315 -.01756186  00000+0 -85330-2 0  9993
2 67741  97.2682 109.2553 0001327  77.7233 329.4993 15.85444079  3153
STARLINK-36693          
1 67742U 26026X   26055.25002315 -.01747018  00000+0 -87825-2 0  9999
2 67742  97.2691 109.2474 0001144  77.1721 310.5701 15.84725717  3281
STARLINK-36717          
1 67743U 26026Y   26055.25002315 -.01744155  00000+0 -85564-2 0  9997
2 67743  97.2677 109.2524 0001388  65.7274 335.7560 15.85222153  3287
STARLINK-36692          
1 67744U 26026Z   26055.25002315 -.01754784  00000+0 -87105-2 0  9990
2 67744  97.2685 109.2499 0001399  70.7781 324.3184 15.84999415  3152
