CCSDS_OMM_VERS = 2.0
CREATION_DATE  = 
ORIGINATOR     = 

OBJECT_NAME    = STARLINK-36746
OBJECT_ID      = 2026-026N
CENTER_NAME    = EARTH
REF_FRAME      = TEME
TIME_SYSTEM    = UTC
MEAN_ELEMENT_THEORY = SGP/SGP4

EPOCH          = 2026-02-24T06:00:02.000160
MEAN_MOTION    = 15.82861043
ECCENTRICITY   = .00011009
INCLINATION    = 97.2723
RA_OF_ASC_NODE = 109.2277
ARG_OF_PERICENTER = 83.1726
MEAN_ANOMALY   = 253.5648

EPHEMERIS_TYPE = 0
CLASSIFICATION_TYPE = U
NORAD_CAT_ID   = 67733
ELEMENT_SET_NO = 999
REV_AT_EPOCH   = 315
BSTAR          = -.92930397E-2
MEAN_MOTION_DOT = -.1698629E-1
MEAN_MOTION_DDOT = 0

CCSDS_OMM_VERS = 2.0
CREATION_DATE  = 
ORIGINATOR     = 

OBJECT_NAME    = STARLINK-36749
OBJECT_ID      = 2026-026P
CENTER_NAME    = EARTH
REF_FRAME      = TEME
TIME_SYSTEM    = UTC
MEAN_ELEMENT_THEORY = SGP/SGP4

EPOCH          = 2026-02-24T06:00:02.000160
MEAN_MOTION    = 15.83121989
ECCENTRICITY   = .00013557
INCLINATION    = 97.2717
RA_OF_ASC_NODE = 109.2291
ARG_OF_PERICENTER = 73.4458
MEAN_ANOMALY   = 269.9088

EPHEMERIS_TYPE = 0
CLASSIFICATION_TYPE = U
NORAD_CAT_ID   = 67734
ELEMENT_SET_NO = 999
REV_AT_EPOCH   = 315
BSTAR          = -.95356535E-2
MEAN_MOTION_DOT = -.1755567E-1
MEAN_MOTION_DDOT = 0

CCSDS_OMM_VERS = 2.0
CREATION_DATE  = 
ORIGINATOR     = 

OBJECT_NAME    = STARLINK-36691
OBJECT_ID      = 2026-026Q
CENTER_NAME    = EARTH
REF_FRAME      = TEME
TIME_SYSTEM    = UTC
MEAN_ELEMENT_THEORY = SGP/SGP4

EPOCH          = 2026-02-24T06:00:02.000160
MEAN_MOTION    = 15.83771612
ECCENTRICITY   = .00011097
INCLINATION    = 97.2708
RA_OF_ASC_NODE = 109.2366
ARG_OF_PERICENTER = 73.2591
MEAN_ANOMALY   = 287.9464

EPHEMERIS_TYPE = 0
CLASSIFICATION_TYPE = U
NORAD_CAT_ID   = 67735
ELEMENT_SET_NO = 999
REV_AT_EPOCH   = 328
BSTAR          = -.92265859E-2
MEAN_MOTION_DOT = -.1752286E-1
MEAN_MOTION_DDOT = 0

CCSDS_OMM_VERS = 2.0
CREATION_DATE  = 
ORIGINATOR     = 

OBJECT_NAME    = STARLINK-36317
OBJECT_ID      = 2026-026R
CENTER_NAME    = EARTH
REF_FRAME      = TEME
TIME_SYSTEM    = UTC
MEAN_ELEMENT_THEORY = SGP/SGP4

EPOCH          = 2026-02-24T06:00:02.000160
MEAN_MOTION    = 15.83456986
ECCENTRICITY   = .00011938
INCLINATION    = 97.2711
RA_OF_ASC_NODE = 109.2326
ARG_OF_PERICENTER = 63.1541
MEAN_ANOMALY   = 289.4026

EPHEMERIS_TYPE = 0
CLASSIFICATION_TYPE = U
NORAD_CAT_ID   = 67736
ELEMENT_SET_NO = 999
REV_AT_EPOCH   = 315
BSTAR          = -.93995157E-2
MEAN_MOTION_DOT = -.1757735E-1
MEAN_MOTION_DDOT = 0

CCSDS_OMM_VERS = 2.0
CREATION_DATE  = 
ORIGINATOR     = 

OBJECT_NAME    = STARLINK-36330
OBJECT_ID      = 2026-026S
CENTER_NAME    = EARTH
REF_FRAME      = TEME
TIME_SYSTEM    = UTC
MEAN_ELEMENT_THEORY = SGP/SGP4

EPOCH          = 2026-02-24T06:00:02.000160
MEAN_MOTION    = 15.83976864
ECCENTRICITY   = .00014632
INCLINATION    = 97.2704
RA_OF_ASC_NODE = 109.2385
ARG_OF_PERICENTER = 71.2179
MEAN_ANOMALY   = 295.6487

EPHEMERIS_TYPE = 0
CLASSIFICATION_TYPE = U
NORAD_CAT_ID   = 67737
ELEMENT_SET_NO = 999
REV_AT_EPOCH   = 315
BSTAR          = -.92038507E-2
MEAN_MOTION_DOT = -.1763728E-1
MEAN_MOTION_DDOT = 0

CCSDS_OMM_VERS = 2.0
CREATION_DATE  = 
ORIGINATOR     = 

OBJECT_NAME    = STARLINK-36327
OBJECT_ID      = 2026-026T
CENTER_NAME    = EARTH
REF_FRAME      = TEME
TIME_SYSTEM    = UTC
MEAN_ELEMENT_THEORY = SGP/SGP4

EPOCH          = 2026-02-24T06:00:02.000160
MEAN_MOTION    = 15.84236669
ECCENTRICITY   = .00012945
INCLINATION    = 97.2701
RA_OF_ASC_NODE = 109.2419
ARG_OF_PERICENTER = 74.9866
MEAN_ANOMALY   = 299.0623

EPHEMERIS_TYPE = 0
CLASSIFICATION_TYPE = U
NORAD_CAT_ID   = 67738
ELEMENT_SET_NO = 999
REV_AT_EPOCH   = 315
BSTAR          = -.90642306E-2
MEAN_MOTION_DOT = -.1759278E-1
MEAN_MOTION_DDOT = 0

CCSDS_OMM_VERS = 2.0
CREATION_DATE  = 
ORIGINATOR     = 

OBJECT_NAME    = STARLINK-36329
OBJECT_ID      = 2026-026U
CENTER_NAME    = EARTH
REF_FRAME      = TEME
TIME_SYSTEM    = UTC
MEAN_ELEMENT_THEORY = SGP/SGP4

EPOCH          = 2026-02-24T06:00:02.000160
MEAN_MOTION    = 15.85756130
ECCENTRICITY   = .00013357
INCLINATION    = 97.2672
RA_OF_ASC_NODE = 109.2582
ARG_OF_PERICENTER = 66.8662
MEAN_ANOMALY   = 349.2817

EPHEMERIS_TYPE = 0
CLASSIFICATION_TYPE = U
NORAD_CAT_ID   = 67739
ELEMENT_SET_NO = 999
REV_AT_EPOCH   = 315
BSTAR          = -.83024058E-2
MEAN_MOTION_DOT = -.173784E-1
MEAN_MOTION_DDOT = 0

CCSDS_OMM_VERS = 2.0
CREATION_DATE  = 
ORIGINATOR     = 

OBJECT_NAME    = STARLINK-36737
OBJECT_ID      = 2026-026V
CENTER_NAME    = EARTH
REF_FRAME      = TEME
TIME_SYSTEM    = UTC
MEAN_ELEMENT_THEORY = SGP/SGP4

EPOCH          = 2026-02-24T06:00:02.000160
MEAN_MOTION    = 15.84517907
ECCENTRICITY   = .00014055
INCLINATION    = 97.2693
RA_OF_ASC_NODE = 109.2443
ARG_OF_PERICENTER = 64.7045
MEAN_ANOMALY   = 317.1472

EPHEMERIS_TYPE = 0
CLASSIFICATION_TYPE = U
NORAD_CAT_ID   = 67740
ELEMENT_SET_NO = 999
REV_AT_EPOCH   = 315
BSTAR          = -.89082948E-2
MEAN_MOTION_DOT = -.1753607E-1
MEAN_MOTION_DDOT = 0

CCSDS_OMM_VERS = 2.0
CREATION_DATE  = 
ORIGINATOR     = 

OBJECT_NAME    = STARLINK-36740
OBJECT_ID      = 2026-026W
CENTER_NAME    = EARTH
REF_FRAME      = TEME
TIME_SYSTEM    = UTC
MEAN_ELEMENT_THEORY = SGP/SGP4

EPOCH          = 2026-02-24T06:00:02.000160
MEAN_MOTION    = 15.85444079
ECCENTRICITY   = .00013271
INCLINATION    = 97.2682
RA_OF_ASC_NODE = 109.2553
ARG_OF_PERICENTER = 77.7233
MEAN_ANOMALY   = 329.4993

EPHEMERIS_TYPE = 0
CLASSIFICATION_TYPE = U
NORAD_CAT_ID   = 67741
ELEMENT_SET_NO = 999
REV_AT_EPOCH   = 315
BSTAR          = -.85330038E-2
MEAN_MOTION_DOT = -.1756186E-1
MEAN_MOTION_DDOT = 0

CCSDS_OMM_VERS = 2.0
CREATION_DATE  = 
ORIGINATOR     = 

OBJECT_NAME    = STARLINK-36693
OBJECT_ID      = 2026-026X
CENTER_NAME    = EARTH
REF_FRAME      = TEME
TIME_SYSTEM    = UTC
MEAN_ELEMENT_THEORY = SGP/SGP4

EPOCH          = 2026-02-24T06:00:02.000160
MEAN_MOTION    = 15.84725717
ECCENTRICITY   = .00011447
INCLINATION    = 97.2691
RA_OF_ASC_NODE = 109.2474
ARG_OF_PERICENTER = 77.1721
MEAN_ANOMALY   = 310.5701

EPHEMERIS_TYPE = 0
CLASSIFICATION_TYPE = U
NORAD_CAT_ID   = 67742
ELEMENT_SET_NO = 999
REV_AT_EPOCH   = 328
BSTAR          = -.87825113E-2
MEAN_MOTION_DOT = -.1747018E-1
MEAN_MOTION_DDOT = 0

CCSDS_OMM_VERS = 2.0
CREATION_DATE  = 
ORIGINATOR     = 

OBJECT_NAME    = STARLINK-36717
OBJECT_ID      = 2026-026Y
CENTER_NAME    = EARTH
REF_FRAME      = TEME
TIME_SYSTEM    = UTC
MEAN_ELEMENT_THEORY = SGP/SGP4

EPOCH          = 2026-02-24T06:00:02.000160
MEAN_MOTION    = 15.85222153
ECCENTRICITY   = .00013888
INCLINATION    = 97.2677
RA_OF_ASC_NODE = 109.2524
ARG_OF_PERICENTER = 65.7274
MEAN_ANOMALY   = 335.7560

EPHEMERIS_TYPE = 0
CLASSIFICATION_TYPE = U
NORAD_CAT_ID   = 67743
ELEMENT_SET_NO = 999
REV_AT_EPOCH   = 328
BSTAR          = -.8556443E-2
MEAN_MOTION_DOT = -.1744155E-1
MEAN_MOTION_DDOT = 0

CCSDS_OMM_VERS = 2.0
CREATION_DATE  = 
ORIGINATOR     = 

OBJECT_NAME    = STARLINK-36692
OBJECT_ID      = 2026-026Z
CENTER_NAME    = EARTH
REF_FRAME      = TEME
TIME_SYSTEM    = UTC
MEAN_ELEMENT_THEORY = SGP/SGP4

EPOCH          = 2026-02-24T06:00:02.000160
MEAN_MOTION    = 15.84999415
ECCENTRICITY   = .00013995
INCLINATION    = 97.2685
RA_OF_ASC_NODE = 109.2499
ARG_OF_PERICENTER = 70.7781
MEAN_ANOMALY   = 324.3184

EPHEMERIS_TYPE = 0
CLASSIFICATION_TYPE = U
NORAD_CAT_ID   = 67744
ELEMENT_SET_NO = 999
REV_AT_EPOCH   = 315
BSTAR          = -.87104916E-2
MEAN_MOTION_DOT = -.1754784E-1
MEAN_MOTION_DDOT = 0

